{
  "type": "FeatureCollection",
  "features": [
    {
      "type": "Feature",
      "properties": {
        "norad_id": 43207,
        "name": "BEIDOU-3 M4 (C22)",
        "group": "beidou",
        "lat": 55.22270575248323,
        "lon": 141.79357067472827,
        "alt_km": 21517.34837340214,
        "timestamp": "2025-12-09T05:43:20.990931+00:00",
        "meta_object_name": "BEIDOU-3 M4 (C22)",
        "meta_object_id": "2018-018A",
        "meta_epoch": "2025-12-06T10:25:28.939872",
        "meta_mean_motion": 1.86230708,
        "meta_eccentricity": 0.0004178,
        "meta_inclination": 56.4806,
        "meta_ra_of_asc_node": 69.5126,
        "meta_arg_of_pericenter": 11.9666,
        "meta_mean_anomaly": 348.0575,
        "meta_ephemeris_type": 0,
        "meta_classification_type": "U",
        "meta_norad_cat_id": 43207,
        "meta_element_set_no": 999,
        "meta_rev_at_epoch": 5315,
        "meta_bstar": 0,
        "meta_mean_motion_dot": -4.5e-07,
        "meta_mean_motion_ddot": 0,
        "tle_line1": "1 43207U 18018A   25340.43436273 -.00000045  00000+0  00000+0 0  9998",
        "tle_line2": "2 43207  56.4806  69.5126 0004178  11.9666 348.0575  1.86230708 53156"
      },
      "geometry": {
        "type": "Point",
        "coordinates": [
          141.79357067472827,
          55.22270575248323
        ]
      }
    },
    {
      "type": "Feature",
      "properties": {
        "norad_id": 43208,
        "name": "BEIDOU-3 M3 (C21)",
        "group": "beidou",
        "lat": 28.88819076754436,
        "lon": 90.85082758281935,
        "alt_km": 21520.848452472383,
        "timestamp": "2025-12-09T05:43:20.990943+00:00",
        "meta_object_name": "BEIDOU-3 M3 (C21)",
        "meta_object_id": "2018-018B",
        "meta_epoch": "2025-12-06T12:01:16.553856",
        "meta_mean_motion": 1.8623091,
        "meta_eccentricity": 0.0006466,
        "meta_inclination": 56.4802,
        "meta_ra_of_asc_node": 69.5146,
        "meta_arg_of_pericenter": 317.243,
        "meta_mean_anomaly": 42.7213,
        "meta_ephemeris_type": 0,
        "meta_classification_type": "U",
        "meta_norad_cat_id": 43208,
        "meta_element_set_no": 999,
        "meta_rev_at_epoch": 5315,
        "meta_bstar": 0,
        "meta_mean_motion_dot": -4.5e-07,
        "meta_mean_motion_ddot": 0,
        "tle_line1": "1 43208U 18018B   25340.50088604 -.00000045  00000+0  00000+0 0  9998",
        "tle_line2": "2 43208  56.4802  69.5146 0006466 317.2430  42.7213  1.86230910 53150"
      },
      "geometry": {
        "type": "Point",
        "coordinates": [
          90.85082758281935,
          28.88819076754436
        ]
      }
    },
    {
      "type": "Feature",
      "properties": {
        "norad_id": 43245,
        "name": "BEIDOU-3 M9 (C29)",
        "group": "beidou",
        "lat": -50.00282745294977,
        "lon": -174.7592023428049,
        "alt_km": 21529.847424406722,
        "timestamp": "2025-12-09T05:43:20.990954+00:00",
        "meta_object_name": "BEIDOU-3 M9 (C29)",
        "meta_object_id": "2018-029A",
        "meta_epoch": "2025-12-07T06:05:41.958240",
        "meta_mean_motion": 1.86227905,
        "meta_eccentricity": 0.0001619,
        "meta_inclination": 54.3706,
        "meta_ra_of_asc_node": 306.6586,
        "meta_arg_of_pericenter": 277.0256,
        "meta_mean_anomaly": 82.9411,
        "meta_ephemeris_type": 0,
        "meta_classification_type": "U",
        "meta_norad_cat_id": 43245,
        "meta_element_set_no": 999,
        "meta_rev_at_epoch": 5232,
        "meta_bstar": 0,
        "meta_mean_motion_dot": -7e-07,
        "meta_mean_motion_ddot": 0,
        "tle_line1": "1 43245U 18029A   25341.25395785 -.00000070  00000+0  00000+0 0  9993",
        "tle_line2": "2 43245  54.3706 306.6586 0001619 277.0256  82.9411  1.86227905 52322"
      },
      "geometry": {
        "type": "Point",
        "coordinates": [
          -174.7592023428049,
          -50.00282745294977
        ]
      }
    },
    {
      "type": "Feature",
      "properties": {
        "norad_id": 43246,
        "name": "BEIDOU-3 M10 (C30)",
        "group": "beidou",
        "lat": -48.02424273813482,
        "lon": -106.21917763461595,
        "alt_km": 21529.148021385943,
        "timestamp": "2025-12-09T05:43:20.990966+00:00",
        "meta_object_name": "BEIDOU-3 M10 (C30)",
        "meta_object_id": "2018-029B",
        "meta_epoch": "2025-12-07T04:32:29.911776",
        "meta_mean_motion": 1.86228892,
        "meta_eccentricity": 0.00040611,
        "meta_inclination": 54.3683,
        "meta_ra_of_asc_node": 306.6886,
        "meta_arg_of_pericenter": 0.524,
        "meta_mean_anomaly": 359.4613,
        "meta_ephemeris_type": 0,
        "meta_classification_type": "U",
        "meta_norad_cat_id": 43246,
        "meta_element_set_no": 999,
        "meta_rev_at_epoch": 5230,
        "meta_bstar": 0,
        "meta_mean_motion_dot": -7e-07,
        "meta_mean_motion_ddot": 0,
        "tle_line1": "1 43246U 18029B   25341.18923509 -.00000070  00000+0  00000+0 0  9997",
        "tle_line2": "2 43246  54.3683 306.6886 0004061   0.5240 359.4613  1.86228892 52306"
      },
      "geometry": {
        "type": "Point",
        "coordinates": [
          -106.21917763461595,
          -48.02424273813482
        ]
      }
    },
    {
      "type": "Feature",
      "properties": {
        "norad_id": 43539,
        "name": "BEIDOU-2 IGSO-7 (C16)",
        "group": "beidou",
        "lat": 50.593501060133946,
        "lon": -73.34744305054897,
        "alt_km": 36009.645321588374,
        "timestamp": "2025-12-09T05:43:20.990978+00:00",
        "meta_object_name": "BEIDOU-2 IGSO-7 (C16)",
        "meta_object_id": "2018-057A",
        "meta_epoch": "2025-12-08T10:41:53.941344",
        "meta_mean_motion": 1.00258189,
        "meta_eccentricity": 0.00925204,
        "meta_inclination": 55.1743,
        "meta_ra_of_asc_node": 164.7087,
        "meta_arg_of_pericenter": 235.2301,
        "meta_mean_anomaly": 309.1425,
        "meta_ephemeris_type": 0,
        "meta_classification_type": "U",
        "meta_norad_cat_id": 43539,
        "meta_element_set_no": 999,
        "meta_rev_at_epoch": 2721,
        "meta_bstar": 0,
        "meta_mean_motion_dot": -7e-07,
        "meta_mean_motion_ddot": 0,
        "tle_line1": "1 43539U 18057A   25342.44576321 -.00000070  00000+0  00000+0 0  9999",
        "tle_line2": "2 43539  55.1743 164.7087 0092520 235.2301 309.1425  1.00258189 27218"
      },
      "geometry": {
        "type": "Point",
        "coordinates": [
          -73.34744305054897,
          50.593501060133946
        ]
      }
    },
    {
      "type": "Feature",
      "properties": {
        "norad_id": 43581,
        "name": "BEIDOU-3 M5 (C23)",
        "group": "beidou",
        "lat": 28.955867628943015,
        "lon": -14.87429812289345,
        "alt_km": 21529.865719169506,
        "timestamp": "2025-12-09T05:43:20.990991+00:00",
        "meta_object_name": "BEIDOU-3 M5 (C23)",
        "meta_object_id": "2018-062A",
        "meta_epoch": "2025-12-07T09:56:06.099072",
        "meta_mean_motion": 1.86228656,
        "meta_eccentricity": 0.0002123,
        "meta_inclination": 54.0892,
        "meta_ra_of_asc_node": 188.8244,
        "meta_arg_of_pericenter": 353.0314,
        "meta_mean_anomaly": 7.0363,
        "meta_ephemeris_type": 0,
        "meta_classification_type": "U",
        "meta_norad_cat_id": 43581,
        "meta_element_set_no": 999,
        "meta_rev_at_epoch": 5006,
        "meta_bstar": 0,
        "meta_mean_motion_dot": 5.9e-07,
        "meta_mean_motion_ddot": 0,
        "tle_line1": "1 43581U 18062A   25341.41395948  .00000059  00000+0  00000+0 0  9998",
        "tle_line2": "2 43581  54.0892 188.8244 0002123 353.0314   7.0363  1.86228656 50067"
      },
      "geometry": {
        "type": "Point",
        "coordinates": [
          -14.87429812289345,
          28.955867628943015
        ]
      }
    },
    {
      "type": "Feature",
      "properties": {
        "norad_id": 43582,
        "name": "BEIDOU-3 M6 (C24)",
        "group": "beidou",
        "lat": -41.61228632158367,
        "lon": 48.835258904216225,
        "alt_km": 21554.523269329413,
        "timestamp": "2025-12-09T05:43:20.991007+00:00",
        "meta_object_name": "BEIDOU-3 M6 (C24)",
        "meta_object_id": "2018-062B",
        "meta_epoch": "2025-12-07T19:32:10.570272",
        "meta_mean_motion": 1.86229692,
        "meta_eccentricity": 0.00077761,
        "meta_inclination": 54.0886,
        "meta_ra_of_asc_node": 188.7999,
        "meta_arg_of_pericenter": 46.2812,
        "meta_mean_anomaly": 313.8511,
        "meta_ephemeris_type": 0,
        "meta_classification_type": "U",
        "meta_norad_cat_id": 43582,
        "meta_element_set_no": 999,
        "meta_rev_at_epoch": 5007,
        "meta_bstar": 0,
        "meta_mean_motion_dot": 5.5e-07,
        "meta_mean_motion_ddot": 0,
        "tle_line1": "1 43582U 18062B   25341.81401123  .00000055  00000+0  00000+0 0  9992",
        "tle_line2": "2 43582  54.0886 188.7999 0007776  46.2812 313.8511  1.86229692 50075"
      },
      "geometry": {
        "type": "Point",
        "coordinates": [
          48.835258904216225,
          -41.61228632158367
        ]
      }
    }
  ]
}